OBJECT_NAME,OBJECT_ID,EPOCH,MEAN_MOTION,ECCENTRICITY,INCLINATION,RA_OF_ASC_NODE,ARG_OF_PERICENTER,MEAN_ANOMALY,EPHEMERIS_TYPE,CLASSIFICATION_TYPE,NORAD_CAT_ID,ELEMENT_SET_NO,REV_AT_EPOCH,BSTAR,MEAN_MOTION_DOT,MEAN_MOTION_DDOT
ONEWEB-0620,2023-004X,2026-07-22T22:06:49.511232,13.11418007,.00020651,87.8888,13.9602,88.9651,271.1714,0,U,55161,999,17051,.14862829E-2,.539E-5,0
ONEWEB-0621,2023-004Y,2026-07-22T20:56:01.355424,13.11414539,.00016094,87.8892,13.9623,86.4843,273.6469,0,U,55162,999,17048,-.77605475E-3,-.262E-5,0
ONEWEB-0622,2023-004Z,2026-07-22T21:03:20.552544,13.11414959,.00019193,87.8896,13.9643,69.7183,290.4151,0,U,55163,999,17047,-.14029556E-2,-.485E-5,0
ONEWEB-0623,2023-004AA,2026-07-22T16:59:44.744064,13.17648638,.00013558,87.9152,358.8120,71.8178,288.3101,0,U,55164,999,17226,.14681249E-3,.7E-6,0
ONEWEB-0624,2023-004AB,2026-07-22T18:49:39.462528,13.12927646,.00017372,87.8977,343.5021,95.0385,265.0942,0,U,55165,999,17274,-.14082061E-3,-.38E-6,0
ONEWEB-0625,2023-004AC,2026-07-22T20:23:51.482688,13.17648000,.00017834,87.9154,358.7805,99.1519,260.9814,0,U,55166,999,17227,-.97614305E-4,-.25E-6,0
ONEWEB-0626,2023-004AD,2026-07-21T20:27:46.117440,13.17648258,.00021721,87.9155,358.9781,96.4607,263.6771,0,U,55167,999,17214,-.1273632E-3,-.37E-6,0
ONEWEB-0627,2023-004AE,2026-07-22T21:41:37.586400,13.17649431,.00014587,87.9158,358.7697,81.9953,278.1344,0,U,55168,999,17228,.34375203E-3,.146E-5,0
ONEWEB-0628,2023-004AF,2026-07-22T20:31:37.270272,13.12438492,.00012631,87.8977,343.5631,86.1541,273.9732,0,U,55169,999,17271,.39332798E-3,.154E-5,0
ONEWEB-0629,2023-004AG,2026-07-22T21:06:22.809024,13.17650239,.00015206,87.9153,358.7704,97.3835,262.7470,0,U,55170,999,17228,.55838213E-4,.35E-6,0
ONEWEB-0631,2023-004AH,2026-07-22T07:23:46.835808,13.18687030,.00022302,87.9200,328.4536,87.5357,272.6031,0,U,55171,999,17430,.66596485E-4,.39E-6,0
ONEWEB-0709,2023-004AJ,2026-07-22T21:52:11.007264,13.11418672,.00027103,87.8890,13.9647,93.5693,266.5745,0,U,55172,999,17055,.82788718E-3,.306E-5,0
ONEWEB-0710,2023-004AK,2026-07-21T23:34:52.099680,13.17648859,.00018048,87.9153,358.9437,88.3322,271.8016,0,U,55173,999,17216,-.4692728E-5,.11E-6,0
ONEWEB-0711,2023-004AL,2026-07-22T17:30:55.513152,13.11416753,.00015924,87.8892,13.9889,68.5547,291.5751,0,U,55174,999,17049,-.14137396E-2,-.488E-5,0
ONEWEB-0713,2023-004AM,2026-07-22T10:38:19.675392,13.11418917,.00016905,87.8895,14.0482,79.8534,280.2785,0,U,55175,999,17044,-.10197259E-3,-.23E-6,0
ONEWEB-0715,2023-004AN,2026-07-22T21:30:12.271968,13.11418101,.00024575,87.8892,13.9587,86.1374,274.0035,0,U,55176,999,17054,-.10597553E-2,-.363E-5,0
ONEWEB-0716,2023-004AP,2026-07-21T16:07:45.270336,13.17649269,.00018321,87.9153,359.0084,100.9471,259.1867,0,U,55177,999,17212,.63113833E-4,.37E-6,0
ONEWEB-0717,2023-004AQ,2026-07-22T20:53:01.164768,13.17647757,.00018524,87.9164,358.7615,77.0935,283.0403,0,U,55178,999,17233,.14063347E-3,.67E-6,0
ONEWEB-0719,2023-004AR,2026-07-22T21:07:35.550912,13.17647925,.0001715,87.9164,358.7395,99.5146,260.6179,0,U,55179,999,17228,.59083458E-4,.36E-6,0
ONEWEB-0530,2023-029A,2026-07-22T11:14:24.927648,13.20770308,.00016753,87.9168,267.4352,88.3812,271.7513,0,U,55796,999,16580,-.85273088E-4,-.22E-6,0
ONEWEB-0534,2023-029B,2026-07-22T14:35:37.098528,13.20769650,.00020756,87.9167,267.4086,99.5281,260.6087,0,U,55797,999,16582,.15823752E-3,.77E-6,0
ONEWEB-0556,2023-029C,2026-07-22T22:01:41.343168,13.20771237,.00014756,87.9161,267.3449,121.6625,238.4652,0,U,55798,999,16586,.21380296E-3,.1E-5,0
ONEWEB-0562,2023-029D,2026-07-22T05:20:28.514400,13.20772940,.00011916,87.9169,267.4650,92.2219,267.9051,0,U,55799,999,16577,.12058161E-3,.62E-6,0
ONEWEB-0563,2023-029E,2026-07-22T05:13:12.837216,13.20770366,.00021466,87.9170,267.4969,104.8836,255.2535,0,U,55800,999,16576,.89734206E-4,.49E-6,0
ONEWEB-0564,2023-029F,2026-07-22T10:30:46.973952,13.20772427,.0001686,87.9166,267.4262,93.8814,266.2513,0,U,55801,999,16580,.13258721E-3,.67E-6,0
ONEWEB-0638,2023-029G,2026-07-22T15:15:15.293088,13.14504832,.00015456,87.8950,282.6858,109.0970,251.0328,0,U,55802,999,16405,-.63946356E-3,-.224E-5,0
ONEWEB-0639,2023-029H,2026-07-22T21:26:16.653984,13.19724590,.0002837,87.9182,297.8662,113.3185,246.8246,0,U,55803,999,16361,.17735269E-3,.84E-6,0
ONEWEB-0640,2023-029J,2026-07-22T15:28:58.533024,13.14502950,.0001819,87.8950,282.6744,118.6651,241.4662,0,U,55804,999,16407,-.25908709E-3,-.83E-6,0
ONEWEB-0641,2023-029K,2026-07-22T15:51:56.498976,13.19727607,.0002068,87.9191,297.9043,104.4632,255.6730,0,U,55805,999,16359,.33682089E-4,.26E-6,0
ONEWEB-0642,2023-029L,2026-07-22T15:45:06.865344,13.19726482,.00028335,87.9182,297.9147,107.3154,252.8288,0,U,55806,999,16358,-.21919185E-4,.4E-7,0
ONEWEB-0643,2023-029M,2026-07-22T05:37:32.826144,13.14502742,.00027169,87.8954,282.7440,101.5494,258.5941,0,U,55807,999,16399,-.14001049E-3,-.39E-6,0
ONEWEB-0644,2023-029N,2026-07-22T06:32:24.955584,13.19726472,.00023784,87.9182,297.9919,103.5844,256.5554,0,U,55808,999,16353,.55035771E-4,.35E-6,0
ONEWEB-0645,2023-029P,2026-07-22T07:04:15.352896,13.19726355,.00021868,87.9181,297.9843,112.7287,247.4078,0,U,55809,999,16353,.23561277E-3,.107E-5,0
ONEWEB-0646,2023-029Q,2026-07-22T16:35:08.772000,13.19724074,.00022499,87.9184,297.9061,100.3002,259.8385,0,U,55810,999,16357,.10531018E-3,.55E-6,0
ONEWEB-0648,2023-029R,2026-07-22T15:49:31.283904,13.14504044,.00026092,87.8962,282.6366,118.4430,241.6963,0,U,55811,999,16405,.42999259E-3,.172E-5,0
ONEWEB-0649,2023-029S,2026-07-22T17:11:32.050752,13.19723901,.00021748,87.9182,297.8990,106.7172,253.4200,0,U,55812,999,16361,-.7032646E-5,.1E-6,0
ONEWEB-0650,2023-029T,2026-07-22T17:04:43.108320,13.19724160,.00025848,87.9182,297.9024,106.5694,253.5723,0,U,55813,999,16358,-.77602757E-4,-.18E-6,0
ONEWEB-0652,2023-029U,2026-07-22T11:42:54.236736,13.14502841,.00019953,87.8954,282.6763,95.1448,264.9909,0,U,55814,999,16400,-.47690901E-3,-.164E-5,0
ONEWEB-0653,2023-029V,2026-07-22T14:59:17.263968,13.14501494,.00019485,87.8967,282.6486,99.7139,260.4210,0,U,55815,999,16405,-.4102133E-3,-.139E-5,0
ONEWEB-0654,2023-029W,2026-07-22T14:52:26.095872,13.14501944,.0001702,87.8967,282.6456,92.5082,267.6242,0,U,55816,999,16407,-.20418443E-3,-.63E-6,0
ONEWEB-0656,2023-029X,2026-07-22T10:21:05.510592,13.20770519,.00017748,87.9178,267.4077,88.2053,271.9284,0,U,55817,999,16580,.20957231E-3,.98E-6,0
ONEWEB-0657,2023-029Y,2026-07-22T16:57:55.041120,13.19727102,.00019526,87.9181,297.9015,77.8244,282.3107,0,U,55818,999,16359,-.11297862E-3,-.32E-6,0
ONEWEB-0658,2023-029Z,2026-07-22T16:51:04.568544,13.19726688,.00024048,87.9193,297.8812,103.5599,256.5801,0,U,55819,999,16360,-.8307857E-5,.1E-6,0
ONEWEB-0660,2023-029AA,2026-07-22T07:02:01.937472,13.14501771,.00020308,87.8971,282.7064,109.1073,251.0277,0,U,55820,999,16401,.58507837E-3,.23E-5,0
ONEWEB-0661,2023-029AB,2026-07-22T15:10:42.532608,13.14502620,.00019361,87.8948,282.6775,107.0364,253.0978,0,U,55821,999,16404,-.55565232E-3,-.193E-5,0
ONEWEB-0662,2023-029AC,2026-07-22T14:11:20.827392,13.14502712,.00020103,87.8951,282.6917,109.1679,250.9669,0,U,55822,999,16408,.44145905E-3,.176E-5,0
ONEWEB-0663,2023-029AD,2026-07-22T14:43:58.678176,13.20871831,.00022922,87.9181,267.4418,107.8747,252.2637,0,U,55823,999,16582,.11147345E-3,.58E-6,0
ONEWEB-0664,2023-029AE,2026-07-22T13:39:52.917408,13.20772722,.00016189,87.9164,267.4272,106.8864,253.2447,0,U,55824,999,16581,.18133405E-3,.87E-6,0
ONEWEB-0665,2023-029AF,2026-07-22T11:26:55.573440,13.14502945,.00021544,87.8952,282.6897,108.0816,252.0548,0,U,55825,999,16404,-.44761238E-3,-.153E-5,0
ONEWEB-0666,2023-029AG,2026-07-22T04:24:42.884352,13.20770332,.00023107,87.9167,267.4950,80.2217,279.9177,0,U,55826,999,16577,.15384548E-4,.19E-6,0
ONEWEB-0667,2023-029AH,2026-07-22T04:17:26.513376,13.20775269,.00020989,87.9210,267.4631,71.0682,289.0679,0,U,55827,999,16576,-.27540694E-2,-.1107E-4,0
ONEWEB-0669,2023-029AJ,2026-07-22T15:04:42.875328,13.20770519,.00014903,87.9179,267.3790,90.9132,269.2172,0,U,55828,999,16582,.12545166E-3,.64E-6,0
ONEWEB-0670,2023-029AK,2026-07-22T07:15:44.767872,13.14502572,.00017523,87.8954,282.7413,109.4454,250.6865,0,U,55829,999,16404,.60019707E-3,.235E-5,0
ONEWEB-0671,2023-029AL,2026-07-22T13:05:53.759904,13.19724896,.00020339,87.9180,297.9351,104.7844,255.3514,0,U,55830,999,16356,.25144917E-3,.114E-5,0
ONEWEB-0672,2023-029AM,2026-07-22T14:57:27.110880,13.20771458,.00019758,87.9177,267.3733,90.9064,269.2296,0,U,55831,999,16582,.31842146E-4,.26E-6,0
ONEWEB-0673,2023-029AN,2026-07-22T12:32:54.844800,13.19726163,.00019993,87.9189,297.9337,104.0312,256.1043,0,U,55832,999,16356,.36633448E-3,.16E-5,0
ONEWEB-0674,2023-029AP,2026-07-22T15:38:06.774720,13.14501516,.00017081,87.8955,282.6490,107.5128,252.6189,0,U,55833,999,16407,-.55683399E-4,-.8E-7,0
ONEWEB-0675,2023-029AQ,2026-07-22T22:00:25.042464,13.19725816,.00021995,87.9184,297.8630,94.7423,265.3961,0,U,55834,999,16363,.1322024E-3,.66E-6,0
ONEWEB-0720,2023-029AR,2026-07-22T07:15:37.237248,13.19726688,.00022442,87.9183,297.9849,106.1401,253.9979,0,U,55835,999,16347,.99885972E-4,.53E-6,0
ONEWEB-0537,2023-043A,2026-07-22T07:19:29.234208,13.16594680,.00020743,87.9080,221.7957,86.3635,273.7733,0,U,56046,999,16358,-.75163471E-4,-.16E-6,0
ONEWEB-0538,2023-043B,2026-07-22T18:06:58.629600,13.16594798,.00023266,87.9082,221.7089,91.2882,268.8515,0,U,56047,999,16365,-.15150324E-3,-.45E-6,0
ONEWEB-0546,2023-043C,2026-07-22T17:48:44.339904,13.16594369,.00020312,87.9078,221.7114,72.7514,287.3839,0,U,56048,999,16364,.27707943E-3,.119E-5,0
ONEWEB-0547,2023-043D,2026-07-22T03:27:35.713440,13.21824359,.00022151,87.9232,237.0175,97.3992,262.7394,0,U,56049,999,16284,-.20707765E-3,-.73E-6,0
ONEWEB-0548,2023-043E,2026-07-22T07:27:26.457696,13.16595668,.00015928,87.9076,221.7922,96.9000,263.2312,0,U,56050,999,16358,-.71841073E-4,-.15E-6,0
ONEWEB-0549,2023-043F,2026-07-22T21:29:09.014208,13.21824372,.00024597,87.9227,236.8726,93.1382,267.0033,0,U,56051,999,16294,.12965937E-3,.67E-6,0
